*******************************************************************************
Ephemeris / PORT_LOGIN Sun Nov 27 10:15:22 2011 Pasadena, USA    / Horizons    
*******************************************************************************
Target body name: Charon (901)                    {source: PLU021}
Center body name: Solar System Barycenter (0)     {source: DE405}
Center-site name: BODY CENTER
*******************************************************************************
Start time      : A.D. 2001-Jan-01 10:00:00.0000 CT 
Stop  time      : A.D. 2001-Jan-02 00:00:00.0000 CT 
Step-size       : 60 minutes
*******************************************************************************
Center geodetic : 0.00000000,0.00000000,0.0000000 {E-lon(deg),Lat(deg),Alt(km)}
Center cylindric: 0.00000000,0.00000000,0.0000000 {E-lon(deg),Dxy(km),Dz(km)}
Center radii    : (undefined)                                                  
Output units    : AU-D                                                         
Output format   : 03
Reference frame : ICRF/J2000.0                                                 
Output type     : GEOMETRIC cartesian states
Coordinate systm: Earth Mean Equator and Equinox of Reference Epoch            
*******************************************************************************
JDCT 
   X     Y     Z
   VX    VY    VZ
   LT    RG    RR
*******************************************************************************
$$SOE
2451910.916666667 = A.D. 2001-Jan-01 10:00:00.0000 (CT)
  -8.765505330678410E+00 -2.837650667139679E+01 -6.214340365470085E+00
   3.127730079894277E-03 -9.595593525116436E-04 -1.168174543803629E-03
   1.752447056174011E-01  3.034268018405574E+01  2.330790114283021E-04
2451910.958333333 = A.D. 2001-Jan-01 11:00:00.0000 (CT)
  -8.765374955625219E+00 -2.837654661429512E+01 -6.214389113088933E+00
   3.130256232631631E-03 -9.577180572283235E-04 -1.171732230664956E-03
   1.752447614985864E-01  3.034268985958305E+01  2.313724181435780E-04
2451911.000000000 = A.D. 2001-Jan-01 12:00:00.0000 (CT)
  -8.765244477375058E+00 -2.837658648278029E+01 -6.214438011537041E+00
   3.132682836182526E-03 -9.559880245278546E-04 -1.175413347312391E-03
   1.752448169880568E-01  3.034269946728702E+01  2.298239587293403E-04
2451911.041666667 = A.D. 2001-Jan-01 13:00:00.0000 (CT)
  -8.765113900161964E+00 -2.837662628154996E+01 -6.214487065830740E+00
   3.135005782735273E-03 -9.543721865780400E-04 -1.179211783444668E-03
   1.752448721241939E-01  3.034270901381322E+01  2.284363100745647E-04
2451911.083333333 = A.D. 2001-Jan-01 14:00:00.0000 (CT)
  -8.764983228387628E+00 -2.837666601542008E+01 -6.214536280727514E+00
   3.137221133670543E-03 -9.528732875698818E-04 -1.183121226568700E-03
   1.752449269459918E-01  3.034271850591328E+01  2.272118828669487E-04
2451911.125000000 = A.D. 2001-Jan-01 15:00:00.0000 (CT)
  -8.764852466614217E+00 -2.837670568931694E+01 -6.214585660717794E+00
   3.139325126462312E-03 -9.514938787688782E-04 -1.187135172110632E-03
   1.752449814929921E-01  3.034272795043361E+01  2.261528170432122E-04
2451911.166666667 = A.D. 2001-Jan-01 16:00:00.0000 (CT)
  -8.764721619556871E+00 -2.837674530826902E+01 -6.214635210017161E+00
   3.141314181314565E-03 -9.502363138663816E-04 -1.191246933886588E-03
   1.752450358052184E-01  3.034273735430408E+01  2.252609776702746E-04
2451911.208333333 = A.D. 2001-Jan-01 17:00:00.0000 (CT)
  -8.764590692075984E+00 -2.837678487739868E+01 -6.214684932559014E+00
   3.143184907520570E-03 -9.491027446412355E-04 -1.195449654918678E-03
   1.752450899231097E-01  3.034274672452650E+01  2.245379512677190E-04
2451911.250000000 = A.D. 2001-Jan-01 18:00:00.0000 (CT)
  -8.764459689169174E+00 -2.837682440191369E+01 -6.214734831987677E+00
   3.144934109531732E-03 -9.480951169415413E-04 -1.199736318581065E-03
   1.752451438874530E-01  3.034275606816290E+01  2.239850425813947E-04
2451911.291666667 = A.D. 2001-Jan-01 19:00:00.0000 (CT)
  -8.764328615963047E+00 -2.837686388709850E+01 -6.214784911651985E+00
   3.146558792723362E-03 -9.472151669960173E-04 -1.204099760060043E-03
   1.752451977393150E-01  3.034276539232377E+01  2.236032718173775E-04
2451911.333333333 = A.D. 2001-Jan-01 20:00:00.0000 (CT)
  -8.764197477704698E+00 -2.837690333830549E+01 -6.214835174599359E+00
   3.148056168845048E-03 -9.464644180639809E-04 -1.208532678111332E-03
   1.752452515199735E-01  3.034277470415612E+01  2.233933723448593E-04
2451911.375000000 = A.D. 2001-Jan-01 21:00:00.0000 (CT)
  -8.764066279753019E+00 -2.837694276094605E+01 -6.214885623570365E+00
   3.149423661143614E-03 -9.458441774325304E-04 -1.213027647097036E-03
   1.752453052708479E-01  3.034278401083154E+01  2.233557888758474E-04
2451911.416666667 = A.D. 2001-Jan-01 22:00:00.0000 (CT)
  -8.763935027569767E+00 -2.837698216048145E+01 -6.214936260993790E+00
   3.150658909147151E-03 -9.453555337690106E-04 -1.217577129283982E-03
   1.752453590334302E-01  3.034279331953409E+01  2.234906761288264E-04
2451911.458333333 = A.D. 2001-Jan-01 23:00:00.0000 (CT)
  -8.763803726710472E+00 -2.837702154241376E+01 -6.214987088982233E+00
   3.151759773098994E-03 -9.449993548363285E-04 -1.222173487384490E-03
   1.752454128492141E-01  3.034280263744823E+01  2.237978979827869E-04
2451911.500000000 = A.D. 2001-Jan-02 00:00:00.0000 (CT)
  -8.763672382815155E+00 -2.837706091227654E+01 -6.215038109328216E+00
   3.152724338031013E-03 -9.447762855781307E-04 -1.226808997319998E-03
   1.752454667596258E-01  3.034281197174666E+01  2.242770271272322E-04
$$EOE
*******************************************************************************
Coordinate system description:

  Earth Mean Equator and Equinox of Reference Epoch

    Reference epoch: J2000.0
    xy-plane: plane of the Earth's mean equator at the reference epoch
    x-axis  : out along ascending node of instantaneous plane of the Earth's
              orbit and the Earth's mean equator at the reference epoch
    z-axis  : along the Earth mean north pole at the reference epoch

Symbol meaning [1 AU=149597870.691 km, 1 day=86400.0 s]:

    JDCT     Epoch Julian Date, Coordinate Time
      X      x-component of position vector (AU)                               
      Y      y-component of position vector (AU)                               
      Z      z-component of position vector (AU)                               
      VX     x-component of velocity vector (AU/day)                           
      VY     y-component of velocity vector (AU/day)                           
      VZ     z-component of velocity vector (AU/day)                           
      LT     One-way down-leg Newtonian light-time (day)                       
      RG     Range; distance from coordinate center (AU)                       
      RR     Range-rate; radial velocity wrt coord. center (AU/day)            

Geometric states/elements have no aberration corrections applied.

 Computations by ...
     Solar System Dynamics Group, Horizons On-Line Ephemeris System
     4800 Oak Grove Drive, Jet Propulsion Laboratory
     Pasadena, CA  91109   USA
     Information: http://ssd.jpl.nasa.gov/
     Connect    : telnet://ssd.jpl.nasa.gov:6775  (via browser)
                  telnet ssd.jpl.nasa.gov 6775    (via command-line)
     Author     : Jon.Giorgini@jpl.nasa.gov
*******************************************************************************
